CCSDS_OMM_VERS = 2.0
CREATION_DATE  = 
ORIGINATOR     = 

OBJECT_NAME    = COSMOS 1933
OBJECT_ID      = 1988-020A
CENTER_NAME    = EARTH
REF_FRAME      = TEME
TIME_SYSTEM    = UTC
MEAN_ELEMENT_THEORY = SGP/SGP4

EPOCH          = 2025-12-06T10:06:03.155904
MEAN_MOTION    = 15.17032036
ECCENTRICITY   = .0005362
INCLINATION    = 82.5129
RA_OF_ASC_NODE = 343.1223
ARG_OF_PERICENTER = 144.6677
MEAN_ANOMALY   = 215.4913

EPHEMERIS_TYPE = 0
CLASSIFICATION_TYPE = U
NORAD_CAT_ID   = 18958
ELEMENT_SET_NO = 999
REV_AT_EPOCH   = 3608
BSTAR          = .40216914E-3
MEAN_MOTION_DOT = .7985E-4
MEAN_MOTION_DDOT = 0

CCSDS_OMM_VERS = 2.0
CREATION_DATE  = 
ORIGINATOR     = 

OBJECT_NAME    = SL-3 R/B
OBJECT_ID      = 1988-032B
CENTER_NAME    = EARTH
REF_FRAME      = TEME
TIME_SYSTEM    = UTC
MEAN_ELEMENT_THEORY = SGP/SGP4

EPOCH          = 2025-12-06T14:27:05.830848
MEAN_MOTION    = 15.18648682
ECCENTRICITY   = .00260261
INCLINATION    = 97.5074
RA_OF_ASC_NODE = 319.3653
ARG_OF_PERICENTER = 194.3985
MEAN_ANOMALY   = 165.6511

EPHEMERIS_TYPE = 0
CLASSIFICATION_TYPE = U
NORAD_CAT_ID   = 19046
ELEMENT_SET_NO = 999
REV_AT_EPOCH   = 3797
BSTAR          = .39834705E-3
MEAN_MOTION_DOT = .8257E-4
MEAN_MOTION_DDOT = 0

CCSDS_OMM_VERS = 2.0
CREATION_DATE  = 
ORIGINATOR     = 

OBJECT_NAME    = SL-16 R/B
OBJECT_ID      = 1988-039B
CENTER_NAME    = EARTH
REF_FRAME      = TEME
TIME_SYSTEM    = UTC
MEAN_ELEMENT_THEORY = SGP/SGP4

EPOCH          = 2025-12-06T13:06:29.725632
MEAN_MOTION    = 14.19595065
ECCENTRICITY   = .00198912
INCLINATION    = 71.0152
RA_OF_ASC_NODE = 265.4936
ARG_OF_PERICENTER = 126.7501
MEAN_ANOMALY   = 233.5454

EPHEMERIS_TYPE = 0
CLASSIFICATION_TYPE = U
NORAD_CAT_ID   = 19120
ELEMENT_SET_NO = 999
REV_AT_EPOCH   = 94516
BSTAR          = .14536267E-3
MEAN_MOTION_DOT = .26E-5
MEAN_MOTION_DDOT = 0

CCSDS_OMM_VERS = 2.0
CREATION_DATE  = 
ORIGINATOR     = 

OBJECT_NAME    = COSMOS 1953
OBJECT_ID      = 1988-050A
CENTER_NAME    = EARTH
REF_FRAME      = TEME
TIME_SYSTEM    = UTC
MEAN_ELEMENT_THEORY = SGP/SGP4

EPOCH          = 2025-12-06T11:29:07.260000
MEAN_MOTION    = 15.26830353
ECCENTRICITY   = .00138073
INCLINATION    = 82.5099
RA_OF_ASC_NODE = 251.8625
ARG_OF_PERICENTER = 90.4282
MEAN_ANOMALY   = 269.8538

EPHEMERIS_TYPE = 0
CLASSIFICATION_TYPE = U
NORAD_CAT_ID   = 19210
ELEMENT_SET_NO = 999
REV_AT_EPOCH   = 2355
BSTAR          = .37922916E-3
MEAN_MOTION_DOT = .10057E-3
MEAN_MOTION_DDOT = 0

CCSDS_OMM_VERS = 2.0
CREATION_DATE  = 
ORIGINATOR     = 

OBJECT_NAME    = SL-8 R/B
OBJECT_ID      = 1988-053B
CENTER_NAME    = EARTH
REF_FRAME      = TEME
TIME_SYSTEM    = UTC
MEAN_ELEMENT_THEORY = SGP/SGP4

EPOCH          = 2025-12-06T13:58:38.057952
MEAN_MOTION    = 14.38853320
ECCENTRICITY   = .0019121
INCLINATION    = 74.0476
RA_OF_ASC_NODE = 284.0676
ARG_OF_PERICENTER = 130.4874
MEAN_ANOMALY   = 42.3308

EPHEMERIS_TYPE = 0
CLASSIFICATION_TYPE = U
NORAD_CAT_ID   = 19257
ELEMENT_SET_NO = 999
REV_AT_EPOCH   = 96320
BSTAR          = .17769115E-3
MEAN_MOTION_DOT = .522E-5
MEAN_MOTION_DDOT = 0

CCSDS_OMM_VERS = 2.0
CREATION_DATE  = 
ORIGINATOR     = 

OBJECT_NAME    = COSMOS 1975
OBJECT_ID      = 1988-093A
CENTER_NAME    = EARTH
REF_FRAME      = TEME
TIME_SYSTEM    = UTC
MEAN_ELEMENT_THEORY = SGP/SGP4

EPOCH          = 2025-12-06T14:50:53.557152
MEAN_MOTION    = 15.26341666
ECCENTRICITY   = .0012471
INCLINATION    = 82.5203
RA_OF_ASC_NODE = 210.9555
ARG_OF_PERICENTER = 131.5533
MEAN_ANOMALY   = 228.6777

EPHEMERIS_TYPE = 0
CLASSIFICATION_TYPE = U
NORAD_CAT_ID   = 19573
ELEMENT_SET_NO = 999
REV_AT_EPOCH   = 520
BSTAR          = .47860914E-3
MEAN_MOTION_DOT = .12495E-3
MEAN_MOTION_DDOT = 0

CCSDS_OMM_VERS = 2.0
CREATION_DATE  = 
ORIGINATOR     = 

OBJECT_NAME    = SL-14 R/B
OBJECT_ID      = 1988-093B
CENTER_NAME    = EARTH
REF_FRAME      = TEME
TIME_SYSTEM    = UTC
MEAN_ELEMENT_THEORY = SGP/SGP4

EPOCH          = 2025-12-06T08:50:21.245280
MEAN_MOTION    = 14.85538696
ECCENTRICITY   = .0020469
INCLINATION    = 82.5299
RA_OF_ASC_NODE = 129.6463
ARG_OF_PERICENTER = 351.1017
MEAN_ANOMALY   = 27.8275

EPHEMERIS_TYPE = 0
CLASSIFICATION_TYPE = U
NORAD_CAT_ID   = 19574
ELEMENT_SET_NO = 999
REV_AT_EPOCH   = 98718
BSTAR          = .11579301E-3
MEAN_MOTION_DOT = .1028E-4
MEAN_MOTION_DDOT = 0

CCSDS_OMM_VERS = 2.0
CREATION_DATE  = 
ORIGINATOR     = 

OBJECT_NAME    = SL-16 R/B
OBJECT_ID      = 1988-102B
CENTER_NAME    = EARTH
REF_FRAME      = TEME
TIME_SYSTEM    = UTC
MEAN_ELEMENT_THEORY = SGP/SGP4

EPOCH          = 2025-12-06T00:44:02.702112
MEAN_MOTION    = 14.16137046
ECCENTRICITY   = .00132755
INCLINATION    = 71.0002
RA_OF_ASC_NODE = 348.5606
ARG_OF_PERICENTER = 163.2235
MEAN_ANOMALY   = 196.9330

EPHEMERIS_TYPE = 0
CLASSIFICATION_TYPE = U
NORAD_CAT_ID   = 19650
ELEMENT_SET_NO = 999
REV_AT_EPOCH   = 91363
BSTAR          = -.5634707E-4
MEAN_MOTION_DOT = -.159E-5
MEAN_MOTION_DDOT = 0

CCSDS_OMM_VERS = 2.0
CREATION_DATE  = 
ORIGINATOR     = 

OBJECT_NAME    = INTERCOSMOS 24
OBJECT_ID      = 1989-080A
CENTER_NAME    = EARTH
REF_FRAME      = TEME
TIME_SYSTEM    = UTC
MEAN_ELEMENT_THEORY = SGP/SGP4

EPOCH          = 2025-12-06T15:02:25.495008
MEAN_MOTION    = 12.59422521
ECCENTRICITY   = .11887646
INCLINATION    = 82.6045
RA_OF_ASC_NODE = 164.9275
ARG_OF_PERICENTER = 148.6971
MEAN_ANOMALY   = 219.0830

EPHEMERIS_TYPE = 0
CLASSIFICATION_TYPE = U
NORAD_CAT_ID   = 20261
ELEMENT_SET_NO = 999
REV_AT_EPOCH   = 65508
BSTAR          = .46453043E-3
MEAN_MOTION_DOT = .1596E-4
MEAN_MOTION_DDOT = 0

CCSDS_OMM_VERS = 2.0
CREATION_DATE  = 
ORIGINATOR     = 

OBJECT_NAME    = SL-14 R/B
OBJECT_ID      = 1989-080C
CENTER_NAME    = EARTH
REF_FRAME      = TEME
TIME_SYSTEM    = UTC
MEAN_ELEMENT_THEORY = SGP/SGP4

EPOCH          = 2025-12-06T15:55:57.297504
MEAN_MOTION    = 12.50406420
ECCENTRICITY   = .1230751
INCLINATION    = 82.5936
RA_OF_ASC_NODE = 232.9203
ARG_OF_PERICENTER = 37.4709
MEAN_ANOMALY   = 330.6044

EPHEMERIS_TYPE = 0
CLASSIFICATION_TYPE = U
NORAD_CAT_ID   = 20262
ELEMENT_SET_NO = 999
REV_AT_EPOCH   = 64852
BSTAR          = .22974395E-3
MEAN_MOTION_DOT = .783E-5
MEAN_MOTION_DDOT = 0

CCSDS_OMM_VERS = 2.0
CREATION_DATE  = 
ORIGINATOR     = 

OBJECT_NAME    = DELTA 1 R/B
OBJECT_ID      = 1989-089B
CENTER_NAME    = EARTH
REF_FRAME      = TEME
TIME_SYSTEM    = UTC
MEAN_ELEMENT_THEORY = SGP/SGP4

EPOCH          = 2025-12-06T15:19:27.034176
MEAN_MOTION    = 14.50564935
ECCENTRICITY   = .00704404
INCLINATION    = 97.0757
RA_OF_ASC_NODE = 197.8428
ARG_OF_PERICENTER = 57.2460
MEAN_ANOMALY   = 303.5501

EPHEMERIS_TYPE = 0
CLASSIFICATION_TYPE = U
NORAD_CAT_ID   = 20323
ELEMENT_SET_NO = 999
REV_AT_EPOCH   = 88224
BSTAR          = .18346419E-3
MEAN_MOTION_DOT = .707E-5
MEAN_MOTION_DDOT = 0

CCSDS_OMM_VERS = 2.0
CREATION_DATE  = 
ORIGINATOR     = 

OBJECT_NAME    = ARIANE 40 R/B
OBJECT_ID      = 1990-005H
CENTER_NAME    = EARTH
REF_FRAME      = TEME
TIME_SYSTEM    = UTC
MEAN_ELEMENT_THEORY = SGP/SGP4

EPOCH          = 2025-12-06T14:58:07.152096
MEAN_MOTION    = 14.39791851
ECCENTRICITY   = .00111405
INCLINATION    = 98.3251
RA_OF_ASC_NODE = 38.9742
ARG_OF_PERICENTER = 122.3974
MEAN_ANOMALY   = 237.8294

EPHEMERIS_TYPE = 0
CLASSIFICATION_TYPE = U
NORAD_CAT_ID   = 20443
ELEMENT_SET_NO = 999
REV_AT_EPOCH   = 87941
BSTAR          = .22935232E-3
MEAN_MOTION_DOT = .677E-5
MEAN_MOTION_DDOT = 0

