COSMOS 1933             
1 18958U 88020A   25340.42086986  .00007985  00000+0  40217-3 0  9991
2 18958  82.5129 343.1223 0005362 144.6677 215.4913 15.17032036 36089
SL-3 R/B                
1 19046U 88032B   25340.60215082  .00008257  00000+0  39835-3 0  9991
2 19046  97.5074 319.3653 0026026 194.3985 165.6511 15.18648682 37979
SL-16 R/B               
1 19120U 88039B   25340.54617738  .00000260  00000+0  14536-3 0  9995
2 19120  71.0152 265.4936 0019891 126.7501 233.5454 14.19595065945162
COSMOS 1953             
1 19210U 88050A   25340.47855625  .00010057  00000+0  37923-3 0  9999
2 19210  82.5099 251.8625 0013807  90.4282 269.8538 15.26830353 23553
SL-8 R/B                
1 19257U 88053B   25340.58238493  .00000522  00000+0  17769-3 0  9995
2 19257  74.0476 284.0676 0019121 130.4874  42.3308 14.38853320963205
COSMOS 1975             
1 19573U 88093A   25340.61867543  .00012495  00000+0  47861-3 0  9996
2 19573  82.5203 210.9555 0012471 131.5533 228.6777 15.26341666  5206
SL-14 R/B               
1 19574U 88093B   25340.36830145  .00001028  00000+0  11579-3 0  9994
2 19574  82.5299 129.6463 0020469 351.1017  27.8275 14.85538696987182
SL-16 R/B               
1 19650U 88102B   25340.03058683 -.00000159  00000+0 -56347-4 0  9992
2 19650  71.0002 348.5606 0013275 163.2235 196.9330 14.16137046913631
INTERCOSMOS 24          
1 20261U 89080A   25340.62668397  .00001596  00000+0  46453-3 0  9992
2 20261  82.6045 164.9275 1188764 148.6971 219.0830 12.59422521655083
SL-14 R/B               
1 20262U 89080C   25340.66385761  .00000783  00000+0  22974-3 0  9997
2 20262  82.5936 232.9203 1230751  37.4709 330.6044 12.50406420648526
DELTA 1 R/B             
1 20323U 89089B   25340.63850734  .00000707  00000+0  18346-3 0  9992
2 20323  97.0757 197.8428 0070440  57.2460 303.5501 14.50564935882248
ARIANE 40 R/B           
1 20443U 90005H   25340.62369389  .00000677  00000+0  22935-3 0  9990
2 20443  98.3251  38.9742 0011140 122.3974 237.8294 14.39791851879413
